COSMOS 2058             
1 20465U 90010A   26178.06208090  .00003288  00000+0  18935-3 0  9995
2 20465  82.4694 299.6167 0008653 321.4201  38.6411 15.12076505958767
SL-14 R/B               
1 20466U 90010B   26178.01452935  .00000377  00000+0  42725-4 0  9991
2 20466  82.5019 164.7154 0018401 302.1548  57.7881 14.83652242944695
SL-14 R/B               
1 20511U 90018B   26178.27262532  .00000395  00000+0  46419-4 0  9994
2 20511  82.5218 120.6814 0017718  91.2859 269.0385 14.82222653938814
HST                     
1 20580U 90037B   26178.24823549  .00007152  00000+0  22534-3 0  9998
2 20580  28.4733  11.8084 0001398 264.2756  95.7680 15.30861955790115
SL-16 R/B               
1 20625U 90046B   26178.12769546 -.00000216  00000+0 -86764-4 0  9993
2 20625  71.0000  68.0720 0012681 145.9761 214.2178 14.15026279863873
COSMOS 2084             
1 20663U 90055A   26177.82128328  .00002369  00000+0  17468-3 0  9991
2 20663  62.7908 323.2066 0006108 295.7526  64.2944 15.06154696952754
SL-6 R/B(2)             
1 20666U 90055D   26178.28825747  .00001430  00000+0  11575-3 0  9995
2 20666  62.7809 241.0031 0042313   6.5261 353.6380 15.04032339954677
SL-8 R/B                
1 20775U 90078B   26178.18390905  .00026575  00000+0  75105-3 0  9999
2 20775  82.9010 152.6090 0348094   4.7611 355.6773 14.92802617825611
SL-8 R/B                
1 21088U 91006B   26178.31696853  .00000059  00000+0  43971-4 0  9991
2 21088  82.9425  88.4983 0023870  87.8303  32.7190 13.77506812779162
OKEAN-3                 
1 21397U 91039A   26178.24230397  .00002220  00000+0  15281-3 0  9993
2 21397  82.5164 230.6316 0012882 320.5448  39.4840 15.05371362881512
COSMOS 2151             
1 21422U 91042A   26178.26305158  .00001826  00000+0  14271-3 0  9995
2 21422  82.4965 337.9560 0013470  53.5144 306.7319 15.00465963879627
SL-14 R/B               
1 21423U 91042B   26178.28127937  .00000350  00000+0  41189-4 0  9995
2 21423  82.4936 117.4301 0015605 238.3870 121.5822 14.81908446869303
ERS-1                   
1 21574U 91050A   26178.03487640  .00000288  00000+0  10684-3 0  9999
2 21574  98.7794 198.9736 0030870 236.6619 123.1612 14.39522731831464
ARIANE 40 R/B           
1 21610U 91050F   26178.10369226  .00000267  00000+0  92291-4 0  9999
2 21610  98.1871 226.1342 0004467 100.0743 260.0952 14.42962404834771
INTERCOSMOS 25          
1 21819U 91086A   26178.18141336  .00000835  00000+0  16570-3 0  9993
2 21819  82.6039 243.7621 1483979 240.8117 103.6607 12.12212787509954
SL-8 R/B                
1 21876U 92008B   26178.16309370  .00000154  00000+0  14202-3 0  9997
2 21876  82.9259 186.3701 0034480 186.4070 246.4179 13.75979552724472
SL-8 R/B                
1 21938U 92020B   26178.24914174  .00000060  00000+0  46948-4 0  9992
2 21938  82.9304  72.3838 0029019 354.8490 123.6166 13.75549849716190
USA 81                  
1 21949U 92023A   26178.19442911  .00000155  00000+0  49882-4 0  9991
2 21949  85.0070  68.2317 0002630  76.1909 283.9576 14.32400652110466
COSMOS 2219             
1 22219U 92076A   26178.30606942  .00000286  00000+0  17449-3 0  9997
2 22219  71.0599 148.9182 0017119  26.9825 333.2184 14.14106359733879
SL-16 R/B               
1 22220U 92076B   26178.14739742 -.00000118  00000+0 -34782-4 0  9992
2 22220  71.0013 317.7987 0014992 285.5882 246.9332 14.16875637737337
COSMOS 2221             
1 22236U 92080A   26178.23524632  .00001499  00000+0  12931-3 0  9996
2 22236  82.5031 174.1374 0014189 177.3894 182.7405 14.96558066797173
SL-16 R/B               
1 22285U 92093B   26178.27752157  .00000221  00000+0  13775-3 0  9992
2 22285  71.0206 134.2086 0003433 169.1454 190.9743 14.15461319728661
COSMOS 2228             
1 22286U 92094A   26178.24357749  .00001808  00000+0  15210-3 0  9997
2 22286  82.5180 132.4102 0016092 295.7671  64.1891 14.97621439792456
SL-16 R/B               
1 22566U 93016B   26178.18795331 -.00000162  00000+0 -58469-4 0  9997
2 22566  71.0087 345.2012 0009526 169.3329 190.7998 14.15315671717662
COSMOS 2242             
1 22626U 93024A   26178.00709021  .00001681  00000+0  14386-3 0  9999
2 22626  82.5182 162.1476 0014637 300.8485  59.1297 14.96931898796746
SL-16 R/B               
1 22803U 93059B   26178.30058076  .00000105  00000+0  75615-4 0  9997
2 22803  70.9892 139.9763 0015675  37.1987 323.0220 14.17247427695066
ARIANE 40 R/B           
1 22830U 93061H   26178.19081222  .00000168  00000+0  77248-4 0  9999
2 22830  98.4815 244.8400 0009865 325.3734  34.6807 14.32911608709783
COSMOS 2278             
1 23087U 94023A   26178.07736334 -.00000168  00000+0 -62798-4 0  9997
2 23087  71.0551 306.2323 0010450 231.8980 128.1201 14.14398237660279
SL-16 R/B               
1 23088U 94023B   26178.28679333 -.00000100  00000+0 -26956-4 0  9998
2 23088  70.9985 200.7213 0002055 178.4215 181.6914 14.15027566661590
SL-16 R/B               
1 23343U 94074B   26178.08960912  .00000410  00000+0  61432-4 0  9992
2 23343  97.6988 204.3979 0005631 213.8864 209.6985 14.79510147703429
