OBJECT_NAME,OBJECT_ID,EPOCH,MEAN_MOTION,ECCENTRICITY,INCLINATION,RA_OF_ASC_NODE,ARG_OF_PERICENTER,MEAN_ANOMALY,EPHEMERIS_TYPE,CLASSIFICATION_TYPE,NORAD_CAT_ID,ELEMENT_SET_NO,REV_AT_EPOCH,BSTAR,MEAN_MOTION_DOT,MEAN_MOTION_DDOT
COSMOS 2058,1990-010A,2026-06-27T01:29:23.789760,15.12076505,.00086531,82.4694,299.6167,321.4201,38.6411,0,U,20465,999,95876,.18935402E-3,.3288E-4,0
SL-14 R/B,1990-010B,2026-06-27T00:20:55.335840,14.83652242,.00184016,82.5019,164.7154,302.1548,57.7881,0,U,20466,999,94469,.4272548E-4,.377E-5,0
SL-14 R/B,1990-018B,2026-06-27T06:32:34.827648,14.82222653,.00177189,82.5218,120.6814,91.2859,269.0385,0,U,20511,999,93881,.46418751E-4,.395E-5,0
HST,1990-037B,2026-06-27T05:57:27.546336,15.30861955,.00013988,28.4733,11.8084,264.2756,95.7680,0,U,20580,999,79011,.22533672E-3,.7152E-4,0
SL-16 R/B,1990-046B,2026-06-27T03:03:52.887744,14.15026279,.00126818,71.0000,68.0720,145.9761,214.2178,0,U,20625,999,86387,-.8676414E-4,-.216E-5,0
COSMOS 2084,1990-055A,2026-06-26T19:42:38.875392,15.06154696,.00061082,62.7908,323.2066,295.7526,64.2944,0,U,20663,999,95275,.17467607E-3,.2369E-4,0
SL-6 R/B(2),1990-055D,2026-06-27T06:55:05.445408,15.04032339,.00423136,62.7809,241.0031,6.5261,353.6380,0,U,20666,999,95467,.11574553E-3,.143E-4,0
SL-8 R/B,1990-078B,2026-06-27T04:24:49.741920,14.92802617,.03480943,82.9010,152.6090,4.7611,355.6773,0,U,20775,999,82561,.75105494E-3,.26575E-3,0
SL-8 R/B,1991-006B,2026-06-27T07:36:26.080992,13.77506812,.00238707,82.9425,88.4983,87.8303,32.7190,0,U,21088,999,77916,.43971446E-4,.59E-6,0
OKEAN-3,1991-039A,2026-06-27T05:48:55.063008,15.05371362,.00128828,82.5164,230.6316,320.5448,39.4840,0,U,21397,999,88151,.15280928E-3,.222E-4,0
COSMOS 2151,1991-042A,2026-06-27T06:18:47.656512,15.00465963,.00134708,82.4965,337.9560,53.5144,306.7319,0,U,21422,999,87962,.14270566E-3,.1826E-4,0
SL-14 R/B,1991-042B,2026-06-27T06:45:02.537568,14.81908446,.00156052,82.4936,117.4301,238.3870,121.5822,0,U,21423,999,86930,.41188899E-4,.35E-5,0
ERS-1,1991-050A,2026-06-27T00:50:13.320960,14.39522731,.00308707,98.7794,198.9736,236.6619,123.1612,0,U,21574,999,83146,.10684377E-3,.288E-5,0
ARIANE 40 R/B,1991-050F,2026-06-27T02:29:19.011264,14.42962404,.00044678,98.1871,226.1342,100.0743,260.0952,0,U,21610,999,83477,.92290908E-4,.267E-5,0
INTERCOSMOS 25,1991-086A,2026-06-27T04:21:14.114304,12.12212787,.14839791,82.6039,243.7621,240.8117,103.6607,0,U,21819,999,50995,.16569829E-3,.835E-5,0
SL-8 R/B,1992-008B,2026-06-27T03:54:51.295680,13.75979552,.00344803,82.9259,186.3701,186.4070,246.4179,0,U,21876,999,72447,.14202008E-3,.154E-5,0
SL-8 R/B,1992-020B,2026-06-27T05:58:45.846336,13.75549849,.0029019,82.9304,72.3838,354.8490,123.6166,0,U,21938,999,71619,.469479E-4,.6E-6,0
USA 81,1992-023A,2026-06-27T04:39:58.675104,14.32400652,.00026304,85.0070,68.2317,76.1909,283.9576,0,U,21949,999,11046,.4988223E-4,.155E-5,0
COSMOS 2219,1992-076A,2026-06-27T07:20:44.397888,14.14106359,.00171193,71.0599,148.9182,26.9825,333.2184,0,U,22219,999,73387,.17449462E-3,.286E-5,0
SL-16 R/B,1992-076B,2026-06-27T03:32:15.137088,14.16875637,.0014992,71.0013,317.7987,285.5882,246.9332,0,U,22220,999,73733,-.34781572E-4,-.118E-5,0
COSMOS 2221,1992-080A,2026-06-27T05:38:45.282048,14.96558066,.00141899,82.5031,174.1374,177.3894,182.7405,0,U,22236,999,79717,.12931038E-3,.1499E-4,0
SL-16 R/B,1992-093B,2026-06-27T06:39:37.863648,14.15461319,.00034333,71.0206,134.2086,169.1454,190.9743,0,U,22285,999,72866,.13775451E-3,.221E-5,0
COSMOS 2228,1992-094A,2026-06-27T05:50:45.095136,14.97621439,.00160926,82.5180,132.4102,295.7671,64.1891,0,U,22286,999,79245,.15209931E-3,.1808E-4,0
SL-16 R/B,1993-016B,2026-06-27T04:30:39.165984,14.15315671,.00095261,71.0087,345.2012,169.3329,190.7998,0,U,22566,999,71766,-.58469004E-4,-.162E-5,0
COSMOS 2242,1993-024A,2026-06-27T00:10:12.594144,14.96931898,.0014637,82.5182,162.1476,300.8485,59.1297,0,U,22626,999,79674,.14386001E-3,.1681E-4,0
SL-16 R/B,1993-059B,2026-06-27T07:12:50.177664,14.17247427,.00156752,70.9892,139.9763,37.1987,323.0220,0,U,22803,999,69506,.75614594E-4,.105E-5,0
ARIANE 40 R/B,1993-061H,2026-06-27T04:34:46.175808,14.32911608,.00098657,98.4815,244.8400,325.3734,34.6807,0,U,22830,999,70978,.77248492E-4,.168E-5,0
COSMOS 2278,1994-023A,2026-06-27T01:51:24.192576,14.14398237,.00104504,71.0551,306.2323,231.8980,128.1201,0,U,23087,999,66027,-.6279766E-4,-.168E-5,0
SL-16 R/B,1994-023B,2026-06-27T06:52:58.943712,14.15027566,.00020553,70.9985,200.7213,178.4215,181.6914,0,U,23088,999,66159,-.26955964E-4,-.1E-5,0
SL-16 R/B,1994-074B,2026-06-27T02:09:02.227968,14.79510147,.00056315,97.6988,204.3979,213.8864,209.6985,0,U,23343,999,70342,.61432073E-4,.41E-5,0
